246P/NEAT,e,17.6972,74.2463,185.7022,4.250025,0.1124908,0.23389255,166.3698,01/11.0/2025,2000,g 10.5,4.0
# From MPEC 2021-F20
247P/LINEAR,e,13.6582,53.9978,47.4786,3.964598,0.1248548,0.62554417,278.4764,01/11.0/2025,2000,g 16.5,2.0
# From MPC 75730
248P/Gibbs,e,6.3517,207.8084,209.9707,5.982485,0.0673568,0.63930148,343.3690,01/11.0/2025,2000,g 14.0,4.0
# From MPEC 2022-YN2
249P/LINEAR,e,8.3854,239.0431,65.7430,2.765042,0.2143638,0.81935075,355.3495,01/11.0/2025,2000,g 15.5,4.0
# From MPEC 2025-A40
250P/Larson,e,13.1531,73.3056,45.7265,3.779484,0.1341391,0.39880709,343.1268,01/11.0/2025,2000,g 14.5,4.0
# From MPEC 2024-TD8
251P/LINEAR,e,23.3873,219.3389,31.2004,3.512343,0.1497300,0.50426676,49.8318,01/11.0/2025,2000,g 16.5,2.0
# From MPEC 2021-S45
252P/LINEAR,e,10.4185,190.9058,343.3759,3.051243,0.1849222,0.67095269,236.8736,01/11.0/2025,2000,g 17.5,4.0
# From MPEC 2025-AE4
253P/PANSTARRS,e,4.9440,146.8608,230.8277,3.463303,0.1529214,0.41477980,12.5395,01/11.0/2025,2000,g 14.5,4.0
# From MPEC 2024-EF7
254P/McNaught,e,32.5409,129.1819,219.7451,4.619591,0.0992656,0.31865603,155.3367,01/11.0/2025,2000,g 11.0,4.0
# From NK 2214
255P/Levy,e,13.4051,275.6366,186.0390,2.942331,0.1952841,0.71202683,167.1780,01/11.0/2025,2000,g  9.0,4.0
# From MPEC 2024-L77
256P/LINEAR,e,27.6244,81.3292,124.0850,4.635738,0.0987474,0.41790747,66.2670,01/11.0/2025,2000,g 14.0,2.0
# From MPEC 2023-A50
257P/Catalina,e,20.2175,207.7236,117.7531,3.767378,0.1347862,0.42888827,213.6586,01/11.0/2025,2000,g 11.5,4.0
# From MPEC 2021-U31
258P/PANSTARRS,e,6.7509,126.2351,25.5878,4.389568,0.1071695,0.20935728,178.7827,01/11.0/2025,2000,g 13.0,4.0
# From MPC106349
259P/Garradd,e,15.8984,51.3710,257.5108,2.729119,0.2186101,0.33873666,233.5943,01/11.0/2025,2000,g 15.5,4.0
# From MPEC 2022-O01
260P/McNaught,e,15.0446,349.3150,18.4912,3.623445,0.1428965,0.60889627,278.4155,01/11.0/2025,2000,g 13.5,4.0
# From MPEC 2021-J28
261P/Larson,e,6.0731,291.0514,67.3664,3.489886,0.1511775,0.42288868,307.0330,01/11.0/2025,2000,g 14.0,4.0
# From MPC 82322
262P/McNaught-Russell,e,29.2633,217.8881,171.0702,6.869199,0.0547451,0.81614326,241.5571,01/11.0/2025,2000,g 13.5,4.0
# From MPEC 2024-L77
263P/Gibbs,e,11.5265,105.5035,35.0194,3.040990,0.1858582,0.59394477,132.1876,01/11.0/2025,2000,g 18.0,4.0
# From MPC114608
264P/Larsen,e,25.2259,219.2858,341.1478,4.026096,0.1220051,0.34103765,263.1807,01/11.0/2025,2000,g 13.0,4.0
# From MPC 79870
265P/LINEAR,e,14.3450,342.9317,33.5519,4.260218,0.1120873,0.64695436,160.5088,01/11.0/2025,2000,g 14.5,4.0
# From MPEC 2021-F20
266P/Christensen,e,3.4280,4.9504,97.7591,3.528496,0.1487030,0.34087644,256.6123,01/11.0/2025,2000,g 14.7,4.0
# From MPC114608
267P/LONEOS,e,6.1417,228.5897,114.2262,3.210125,0.1713646,0.61453871,44.7524,01/11.0/2025,2000,g 19.5,4.0
# From MPEC 2025-AE4
268P/Bernardi,e,15.6611,125.6319,0.0111,4.592039,0.1001603,0.47460580,2.3571,01/11.0/2025,2000,g 14.0,4.0
# From MPEC 2023-J29
269P/Jedicke,e,7.0846,241.7730,225.6979,7.059496,0.0525465,0.43336841,196.9443,01/11.0/2025,2000,g 10.0,4.0
# From MPC 88332
270P/Gehrels,e,2.9251,223.0360,209.8944,6.650198,0.0574715,0.47020461,242.5701,01/11.0/2025,2000,g  8.0,4.0
# From MPC 92277
271P/van Houten-Lemmon,e,6.8679,9.2962,36.5878,7.032137,0.0528534,0.39607200,221.2189,01/11.0/2025,2000,g 11.0,4.0
# From MPEC 2023-D41
272P/NEAT,e,18.0811,109.4397,27.8808,4.461786,0.1045781,0.45540441,95.0288,01/11.0/2025,2000,g 16.0,2.0
# From MPC 82723
273P/Pons-Gambart,e,136.4274,320.3909,20.1524,31.95807,0.0054555,0.97449434,0.0000,12/22.3544/2012,2000,g 11.5,4.0
# From MPEC 2024-GJ3
274P/Tombaugh-Tenagra,e,15.8213,81.3180,38.4797,4.378181,0.1075879,0.44018135,108.4527,01/11.0/2025,2000,g 13.0,4.0
# From MPC 81862
275P/Hermann,e,21.2555,348.6884,173.9005,5.793712,0.0706755,0.71362332,313.7009,01/11.0/2025,2000,g 17.0,4.0
# From MPEC 2025-AE4
276P/Vorobjov,e,14.7968,211.3304,199.2708,5.353540,0.0795687,0.27175419,2.4855,01/11.0/2025,2000,g 11.5,4.0
# From MPEC 2021-F20
277P/LINEAR,e,16.7924,276.2608,152.4252,3.853513,0.1302923,0.50648078,191.7207,01/11.0/2025,2000,g 15.1,4.0
# From MPEC 2021-S45
278P/McNaught,e,6.6324,14.1579,238.5886,3.655791,0.1410042,0.44658074,221.7759,01/11.0/2025,2000,g 14.0,4.0
# From MPEC 2024-A43
279P/LaSagra,e,5.0515,346.1106,5.6783,3.569463,0.1461503,0.39934581,92.5289,01/11.0/2025,2000,g 14.0,4.0
# From MPEC 2024-RQ6
280P/Larsen,e,11.7750,131.3767,104.6670,4.525397,0.1023809,0.41678254,53.8069,01/11.0/2025,2000,g 12.5,4.0
# From MPEC 2023-D41
281P/MOSS,e,4.7177,87.1655,26.9175,4.885282,0.0912787,0.17387862,64.5770,01/11.0/2025,2000,g 11.0,4.0
# From MPC133426
282P/,e,5.8131,217.6096,9.1454,4.236015,0.1130493,0.18760764,132.9398,01/11.0/2025,2000,g 13.5,2.0
# From MPEC 2022-K19
283P/Spacewatch,e,14.4657,161.1215,22.1467,4.132312,0.1173314,0.48474337,143.2696,01/11.0/2025,2000,g 16.0,2.0
# From MPEC 2024-D33
284P/McNaught,e,11.8542,144.2666,202.4765,3.678479,0.1397017,0.37447916,170.0572,01/11.0/2025,2000,g 13.0,4.0
# From MPEC 2024-L77
285P/LINEAR,e,25.0349,185.5101,178.3922,4.505735,0.1030518,0.61820443,75.2292,01/11.0/2025,2000,g 15.0,4.0
# From MPEC 2024-LE0
286P/Christensen,e,17.1771,283.5784,24.3534,4.089235,0.1191903,0.42875208,116.2183,01/11.0/2025,2000,g 14.0,4.0
# From MPEC 2025-A40
287P/Christensen,e,16.3168,138.8731,189.8132,4.177917,0.1154155,0.27268062,63.7495,01/11.0/2025,2000,g 13.5,4.0
# From MPC133426
288P/,e,3.2383,83.1048,280.3083,3.050024,0.1850330,0.19979903,193.6749,01/11.0/2025,2000,g 16.0,2.0
# From MPEC 2024-O39
289P/Blanpain,e,5.9003,68.8915,9.8786,3.043839,0.1855972,0.68646642,342.6800,01/11.0/2025,2000,g 19.0,4.0
# From MPC 95214
290P/Jager,e,20.0477,302.6762,181.8406,6.214688,0.0636173,0.62814012,254.8243,01/11.0/2025,2000,g 10.5,4.0
# From MPEC 2024-YC7
291P/NEAT,e,6.3098,237.6586,173.5483,4.534494,0.1020730,0.43400492,63.0758,01/11.0/2025,2000,g 13.0,4.0
# From MPEC 2022-K19
292P/Li,e,24.3223,90.8954,319.6520,6.096552,0.0654753,0.58999301,260.9765,01/11.0/2025,2000,g 12.5,4.0
# From MPEC 2022-L66
293P/Spacewatch,e,9.0615,78.3664,40.9637,3.638111,0.1420333,0.41942347,210.5759,01/11.0/2025,2000,g 14.5,4.0
# From MPEC 2020-SI8
294P/LINEAR,e,18.1626,311.2510,235.8983,3.193981,0.1726655,0.60026229,323.2565,01/11.0/2025,2000,g 15.5,4.0
# From MPEC 2022-K19
295P/LINEAR,e,21.0822,7.3871,73.0195,5.300151,0.0807740,0.61766490,314.9526,01/11.0/2025,2000,g 12.0,4.0
# From MPEC 2021-N06
296P/Garradd,e,25.3764,263.5299,350.0065,3.479224,0.1518730,0.48391880,238.5946,01/11.0/2025,2000,g 14.0,4.0
# From MPC102956
297P/Beshore,e,11.1894,92.2543,142.0710,3.554255,0.1470894,0.29346133,213.2542,01/11.0/2025,2000,g 15.0,4.0
# From MPC114609
298P/Christensen,e,7.8716,52.7920,100.6034,3.588543,0.1449862,0.38675893,230.2519,01/11.0/2025,2000,g 15.0,4.0
# From MPEC 2024-TD8
299P/Catalina-PANSTARRS,e,10.4691,271.5808,323.6419,4.388995,0.1071905,0.28090211,27.4283,01/11.0/2025,2000,g 11.5,4.0
# From MPEC 2023-VM5
300P/Catalina,e,5.6763,95.6202,222.8943,2.696748,0.2225582,0.69190657,142.6500,01/11.0/2025,2000,g 16.0,4.0
# From MPC 89014
301P/LINEAR-NEAT,e,10.3291,351.0652,193.4479,5.750349,0.0714764,0.58605340,272.6196,01/11.0/2025,2000,g 13.0,4.0
# From MPEC 2024-YC7
302P/Lemmon-PANSTARRS,e,6.0355,121.7149,208.6341,4.268196,0.1117732,0.22950401,353.5795,01/11.0/2025,2000,g 12.5,4.0
# From MPC 92278
303P/NEAT,e,7.0162,347.9563,357.0289,5.040254,0.0871015,0.51035963,324.7319,01/11.0/2025,2000,g 13.5,4.0
# From MPEC 2022-K19
304P/Ory,e,2.6059,58.9402,335.2759,3.149872,0.1763051,0.60091635,283.9840,01/11.0/2025,2000,g 16.5,4.0
# From MPEC 2025-AE4
305P/Skiff,e,11.6716,240.1047,147.4214,4.637050,0.0987055,0.69406530,5.4136,01/11.0/2025,2000,g 18.0,4.0
# From MPC 92278
306P/LINEAR,e,8.3029,341.3560,0.8976,3.124464,0.1784600,0.59260664,323.8358,01/11.0/2025,2000,g 19.0,4.0
# From MPC 92278
307P/LINEAR,e,4.4351,158.1309,222.2425,5.787756,0.0707846,0.67519648,259.4184,01/11.0/2025,2000,g 15.0,4.0
# From MPEC 2022-C56
308P/Lagerkvist-Carsenty,e,4.8529,63.0976,333.7507,6.600324,0.0581241,0.36441637,205.0747,01/11.0/2025,2000,g 13.0,2.0
# From MPEC 2024-BE0
309P/LINEAR,e,17.0212,10.1373,49.9108,4.374631,0.1077189,0.61829276,31.0262,01/11.0/2025,2000,g 15.0,4.0
# From MPEC 2024-LE0
310P/Hill,e,13.1200,8.8840,31.5293,4.181749,0.1152570,0.42221189,51.3768,01/11.0/2025,2000,g 13.5,4.0
# From MPEC 2024-A43
311P/PANSTARRS,e,4.9712,279.1697,144.2519,2.188426,0.3044431,0.11559817,114.2123,01/11.0/2025,2000,g 17.0,4.0
# From MPEC 2024-NE4
312P/NEAT,e,19.7475,144.6430,207.7093,3.471912,0.1523530,0.42682363,239.1200,01/11.0/2025,2000,g 16.0,4.0
# From MPEC 2024-N80
313P/Gibbs,e,10.9808,105.9254,254.9786,3.163624,0.1751567,0.23456442,302.9527,01/11.0/2025,2000,g 15.0,4.0
# From MPC105243
314P/Montani,e,3.9920,267.6231,213.8477,7.249593,0.0504933,0.41840221,152.1149,01/11.0/2025,2000,g  9.5,4.0
# From MPEC 2023-J29
315P/LONEOS,e,17.7333,68.6573,65.8727,4.937272,0.0898408,0.52193985,266.6031,01/11.0/2025,2000,g 11.0,4.0
# From MPEC 2024-NE4
316P/LONEOS-Christensen,e,9.8843,245.9273,187.6880,4.419787,0.1060723,0.15837322,9.8926,01/11.0/2025,2000,g 13.5,4.0
# From MPEC 2020-C98
317P/WISE,e,11.9743,275.4713,334.8717,2.959881,0.1935498,0.57194169,303.3146,01/11.0/2025,2000,g 17.5,4.0
# From MPC102103
318P/McNaught-Hartley,e,17.8691,35.5871,313.3216,7.513384,0.0478576,0.67360241,161.1426,01/11.0/2025,2000,g  8.5,6.0
# From MPC 97499
319P/Catalina-McNaught,e,15.0943,111.3457,203.6319,3.562951,0.1465512,0.66627425,149.0730,01/11.0/2025,2000,g 15.0,4.0
# From MPC 96281
320P/McNaught,e,4.9025,295.9387,0.7621,3.095666,0.1809560,0.68480220,263.5613,01/11.0/2025,2000,g 20.5,4.0
# From MPC105243
321P/SOHO,e,20.0606,165.0234,172.7436,2.422155,0.2614576,0.98101584,0.0000,10/26.5700/2023,2000,g 20.0,4.0
# From MPC102103
322P/SOHO,e,11.4559,351.4003,57.0202,2.508566,0.2480651,0.97996037,0.0000,08/21.1402/2023,2000,g 19.0,4.0
# From MPEC 2023-XP6
323P/SOHO,e,5.3269,324.2803,353.1247,2.584082,0.2372710,0.98461381,0.0000,03/14.2947/2025,2000,g 20.0,4.0
# From MPEC 2024-F21
